{"type": "FeatureCollection", "features": [ {"type": "Feature", "properties": {"norad_id": 32126, "name": "FENGYUN 1C DEB", "group": "fengyun-1c-debris", "lat": -38.96631475180027, "lon": 34.61484418013714, "alt_km": 887.1984659473701, "timestamp": "2025-12-11T22:43:47.554365+00:00", "meta": {"OBJECT_NAME": "FENGYUN 1C DEB", "OBJECT_ID": "1999-025CRU", "EPOCH": "2025-12-08T21:03:50.440032", "MEAN_MOTION": 13.56787693, "ECCENTRICITY": 0.0281203, "INCLINATION": 99.1098, "RA_OF_ASC_NODE": 219.2267, "ARG_OF_PERICENTER": 265.4353, "MEAN_ANOMALY": 91.4619, "EPHEMERIS_TYPE": 0, "CLASSIFICATION_TYPE": "U", "NORAD_CAT_ID": 32126, "ELEMENT_SET_NO": 999, "REV_AT_EPOCH": 61662, "BSTAR": 0.0016621, "MEAN_MOTION_DOT": 1.479e-05, "MEAN_MOTION_DDOT": 0}, "tle": {"line1": "1 32126U 99025CRU 25342.87766713  .00001479  00000+0  16621-2 0  9998", "line2": "2 32126  99.1098 219.2267 0281203 265.4353  91.4619 13.56787693616621"}}, "geometry": {"type": "Point", "coordinates": [34.61484418013714, -38.96631475180027]}}, {"type": "Feature", "properties": {"norad_id": 32128, "name": "FENGYUN 1C DEB", "group": "fengyun-1c-debris", "lat": 53.80985895886865, "lon": 19.628957596753924, "alt_km": 1193.7098187739175, "timestamp": "2025-12-11T22:43:47.554375+00:00", "meta": {"OBJECT_NAME": "FENGYUN 1C DEB", "OBJECT_ID": "1999-025CRW", "EPOCH": "2025-12-11T08:40:09.395904", "MEAN_MOTION": 13.94214757, "ECCENTRICITY": 0.03970223, "INCLINATION": 99.0309, "RA_OF_ASC_NODE": 31.6094, "ARG_OF_PERICENTER": 226.645, "MEAN_ANOMALY": 130.0993, "EPHEMERIS_TYPE": 0, "CLASSIFICATION_TYPE": "U", "NORAD_CAT_ID": 32128, "ELEMENT_SET_NO": 999, "REV_AT_EPOCH": 62966, "BSTAR": 0.0010859874, "MEAN_MOTION_DOT": 2.732e-05, "MEAN_MOTION_DDOT": 0}, "tle": {"line1": "1 32128U 99025CRW 25345.36121986  .00002732  00000+0  10860-2 0  9996", "line2": "2 32128  99.0309  31.6094 0397022 226.6450 130.0993 13.94214757629666"}}, "geometry": {"type": "Point", "coordinates": [19.628957596753924, 53.80985895886865]}}, {"type": "Feature", "properties": {"norad_id": 32129, "name": "FENGYUN 1C DEB", "group": "fengyun-1c-debris", "lat": -30.437643819786388, "lon": -81.0618689371876, "alt_km": 851.1269001442879, "timestamp": "2025-12-11T22:43:47.554385+00:00", "meta": {"OBJECT_NAME": "FENGYUN 1C DEB", "OBJECT_ID": "1999-025CRX", "EPOCH": "2025-12-11T06:45:15.341184", "MEAN_MOTION": 14.28472827, "ECCENTRICITY": 0.00678013, "INCLINATION": 99.059, "RA_OF_ASC_NODE": 103.6265, "ARG_OF_PERICENTER": 38.308, "MEAN_ANOMALY": 351.1713, "EPHEMERIS_TYPE": 0, "CLASSIFICATION_TYPE": "U", "NORAD_CAT_ID": 32129, "ELEMENT_SET_NO": 999, "REV_AT_EPOCH": 94206, "BSTAR": 0.0040473031, "MEAN_MOTION_DOT": 0.00010354, "MEAN_MOTION_DDOT": 0}, "tle": {"line1": "1 32129U 99025CRX 25345.28142756  .00010354  00000+0  40473-2 0  9998", "line2": "2 32129  99.0590 103.6265 0067801  38.3080 351.1713 14.28472827942065"}}, "geometry": {"type": "Point", "coordinates": [-81.0618689371876, -30.437643819786388]}}, {"type": "Feature", "properties": {"norad_id": 32130, "name": "FENGYUN 1C DEB", "group": "fengyun-1c-debris", "lat": 50.98771640431357, "lon": 141.2714672625843, "alt_km": 750.4789189970061, "timestamp": "2025-12-11T22:43:47.554396+00:00", "meta": {"OBJECT_NAME": "FENGYUN 1C DEB", "OBJECT_ID": "1999-025CRY", "EPOCH": "2025-12-08T04:17:13.347744", "MEAN_MOTION": 14.37529409, "ECCENTRICITY": 0.00826658, "INCLINATION": 98.9036, "RA_OF_ASC_NODE": 148.5278, "ARG_OF_PERICENTER": 343.691, "MEAN_ANOMALY": 16.1618, "EPHEMERIS_TYPE": 0, "CLASSIFICATION_TYPE": "U", "NORAD_CAT_ID": 32130, "ELEMENT_SET_NO": 999, "REV_AT_EPOCH": 96169, "BSTAR": 0.00073105734, "MEAN_MOTION_DOT": 2.23e-05, "MEAN_MOTION_DDOT": 0}, "tle": {"line1": "1 32130U 99025CRY 25342.17862671  .00002230  00000+0  73106-3 0  9994", "line2": "2 32130  98.9036 148.5278 0082665 343.6910  16.1618 14.37529409961692"}}, "geometry": {"type": "Point", "coordinates": [141.2714672625843, 50.98771640431357]}}, {"type": "Feature", "properties": {"norad_id": 32133, "name": "FENGYUN 1C DEB", "group": "fengyun-1c-debris", "lat": 57.6099602419301, "lon": -179.28389915730025, "alt_km": 801.3877884752774, "timestamp": "2025-12-11T22:43:47.554406+00:00", "meta": {"OBJECT_NAME": "FENGYUN 1C DEB", "OBJECT_ID": "1999-025CSB", "EPOCH": "2025-12-10T17:22:27.715296", "MEAN_MOTION": 14.18068885, "ECCENTRICITY": 0.00364001, "INCLINATION": 98.4318, "RA_OF_ASC_NODE": 346.0323, "ARG_OF_PERICENTER": 106.5448, "MEAN_ANOMALY": 253.9732, "EPHEMERIS_TYPE": 0, "CLASSIFICATION_TYPE": "U", "NORAD_CAT_ID": 32133, "ELEMENT_SET_NO": 999, "REV_AT_EPOCH": 94946, "BSTAR": 0.00027593016, "MEAN_MOTION_DOT": 5.29e-06, "MEAN_MOTION_DDOT": 0}, "tle": {"line1": "1 32133U 99025CSB 25344.72393189  .00000529  00000+0  27593-3 0  9991", "line2": "2 32133  98.4318 346.0323 0036400 106.5448 253.9732 14.18068885949461"}}, "geometry": {"type": "Point", "coordinates": [-179.28389915730025, 57.6099602419301]}}, {"type": "Feature", "properties": {"norad_id": 32134, "name": "FENGYUN 1C DEB", "group": "fengyun-1c-debris", "lat": -34.637711718394655, "lon": -4.84460105975703, "alt_km": 726.8675888261414, "timestamp": "2025-12-11T22:43:47.554416+00:00", "meta": {"OBJECT_NAME": "FENGYUN 1C DEB", "OBJECT_ID": "1999-025CSC", "EPOCH": "2025-12-07T11:31:51.559104", "MEAN_MOTION": 14.2152476, "ECCENTRICITY": 0.02590088, "INCLINATION": 98.594, "RA_OF_ASC_NODE": 344.8046, "ARG_OF_PERICENTER": 278.9279, "MEAN_ANOMALY": 238.3835, "EPHEMERIS_TYPE": 0, "CLASSIFICATION_TYPE": "U", "NORAD_CAT_ID": 32134, "ELEMENT_SET_NO": 999, "REV_AT_EPOCH": 95072, "BSTAR": 0.001182529, "MEAN_MOTION_DOT": 3.592e-05, "MEAN_MOTION_DDOT": 0}, "tle": {"line1": "1 32134U 99025CSC 25341.48045786  .00003592  00000+0  11825-2 0  9992", "line2": "2 32134  98.5940 344.8046 0259008 278.9279 238.3835 14.21524760950724"}}, "geometry": {"type": "Point", "coordinates": [-4.84460105975703, -34.637711718394655]}}, {"type": "Feature", "properties": {"norad_id": 32137, "name": "FENGYUN 1C DEB", "group": "fengyun-1c-debris", "lat": -70.87329317750032, "lon": 138.50464149317085, "alt_km": 674.2067698374885, "timestamp": "2025-12-11T22:43:47.554426+00:00", "meta": {"OBJECT_NAME": "FENGYUN 1C DEB", "OBJECT_ID": "1999-025CSF", "EPOCH": "2025-12-11T14:56:54.083616", "MEAN_MOTION": 14.81215146, "ECCENTRICITY": 0.01877134, "INCLINATION": 98.4421, "RA_OF_ASC_NODE": 112.8066, "ARG_OF_PERICENTER": 37.7017, "MEAN_ANOMALY": 323.7178, "EPHEMERIS_TYPE": 0, "CLASSIFICATION_TYPE": "U", "NORAD_CAT_ID": 32137, "ELEMENT_SET_NO": 999, "REV_AT_EPOCH": 66714, "BSTAR": 0.0011968664, "MEAN_MOTION_DOT": 0.00012596, "MEAN_MOTION_DDOT": 0}, "tle": {"line1": "1 32137U 99025CSF 25345.62284819  .00012596  00000+0  11969-2 0  9990", "line2": "2 32137  98.4421 112.8066 0187713  37.7017 323.7178 14.81215146667140"}}, "geometry": {"type": "Point", "coordinates": [138.50464149317085, -70.87329317750032]}}, {"type": "Feature", "properties": {"norad_id": 32141, "name": "FENGYUN 1C DEB", "group": "fengyun-1c-debris", "lat": 46.933615266394824, "lon": 177.85262989641444, "alt_km": 866.1520748083103, "timestamp": "2025-12-11T22:43:47.554436+00:00", "meta": {"OBJECT_NAME": "FENGYUN 1C DEB", "OBJECT_ID": "1999-025CSK", "EPOCH": "2025-11-20T23:04:46.058016", "MEAN_MOTION": 14.03501767, "ECCENTRICITY": 0.00731678, "INCLINATION": 98.7436, "RA_OF_ASC_NODE": 328.1999, "ARG_OF_PERICENTER": 269.2169, "MEAN_ANOMALY": 90.0615, "EPHEMERIS_TYPE": 0, "CLASSIFICATION_TYPE": "U", "NORAD_CAT_ID": 32141, "ELEMENT_SET_NO": 999, "REV_AT_EPOCH": 94638, "BSTAR": 0.00056632309, "MEAN_MOTION_DOT": 8.66e-06, "MEAN_MOTION_DDOT": 0}, "tle": {"line1": "1 32141U 99025CSK 25324.96164419  .00000866  00000+0  56632-3 0  9996", "line2": "2 32141  98.7436 328.1999 0073167 269.2169  90.0615 14.03501767946385"}}, "geometry": {"type": "Point", "coordinates": [177.85262989641444, 46.933615266394824]}}, {"type": "Feature", "properties": {"norad_id": 32143, "name": "FENGYUN 1C DEB", "group": "fengyun-1c-debris", "lat": 53.80049595416387, "lon": -49.02187273738652, "alt_km": 784.6242148675765, "timestamp": "2025-12-11T22:43:47.554446+00:00", "meta": {"OBJECT_NAME": "FENGYUN 1C DEB", "OBJECT_ID": "1999-025CSM", "EPOCH": "2025-12-03T04:28:30.343584", "MEAN_MOTION": 14.17959367, "ECCENTRICITY": 0.01041232, "INCLINATION": 98.5963, "RA_OF_ASC_NODE": 314.4234, "ARG_OF_PERICENTER": 136.0042, "MEAN_ANOMALY": 224.9481, "EPHEMERIS_TYPE": 0, "CLASSIFICATION_TYPE": "U", "NORAD_CAT_ID": 32143, "ELEMENT_SET_NO": 999, "REV_AT_EPOCH": 95798, "BSTAR": 0.00020859227, "MEAN_MOTION_DOT": 4.09e-06, "MEAN_MOTION_DDOT": 0}, "tle": {"line1": "1 32143U 99025CSM 25337.18646231  .00000409  00000+0  20859-3 0  9998", "line2": "2 32143  98.5963 314.4234 0104123 136.0042 224.9481 14.17959367957983"}}, "geometry": {"type": "Point", "coordinates": [-49.02187273738652, 53.80049595416387]}}, {"type": "Feature", "properties": {"norad_id": 32150, "name": "FENGYUN 1C DEB", "group": "fengyun-1c-debris", "lat": 50.78239732167569, "lon": -159.8463280864902, "alt_km": 620.724340925538, "timestamp": "2025-12-11T22:43:47.554456+00:00", "meta": {"OBJECT_NAME": "FENGYUN 1C DEB", "OBJECT_ID": "1999-025CSU", "EPOCH": "2025-12-11T07:21:52.754976", "MEAN_MOTION": 14.60665333, "ECCENTRICITY": 0.01719629, "INCLINATION": 99.1928, "RA_OF_ASC_NODE": 7.9978, "ARG_OF_PERICENTER": 71.9778, "MEAN_ANOMALY": 290.0074, "EPHEMERIS_TYPE": 0, "CLASSIFICATION_TYPE": "U", "NORAD_CAT_ID": 32150, "ELEMENT_SET_NO": 999, "REV_AT_EPOCH": 97685, "BSTAR": 0.00022292944, "MEAN_MOTION_DOT": 1.27e-05, "MEAN_MOTION_DDOT": 0}, "tle": {"line1": "1 32150U 99025CSU 25345.30686059  .00001270  00000+0  22293-3 0  9992", "line2": "2 32150  99.1928   7.9978 0171962  71.9778 290.0074 14.60665333976850"}}, "geometry": {"type": "Point", "coordinates": [-159.8463280864902, 50.78239732167569]}}]}